{
  "type": "FeatureCollection",
  "features": [
    {
      "type": "Feature",
      "properties": {
        "norad_id": 58647,
        "name": "TIANMU-1 13",
        "group": "weather",
        "lat": 8.868397382067478,
        "lon": 9.60285779072856,
        "alt_km": 496.13689892755065,
        "timestamp": "2025-12-17T04:57:44.048042+00:00",
        "meta_object_name": "TIANMU-1 13",
        "meta_object_id": "2023-205C",
        "meta_epoch": "2025-12-17T00:11:50.836128",
        "meta_mean_motion": 15.24580087,
        "meta_eccentricity": 0.0006114,
        "meta_inclination": 97.3619,
        "meta_ra_of_asc_node": 10.5637,
        "meta_arg_of_pericenter": 247.6979,
        "meta_mean_anomaly": 112.3611,
        "meta_ephemeris_type": 0,
        "meta_classification_type": "U",
        "meta_norad_cat_id": 58647,
        "meta_element_set_no": 999,
        "meta_rev_at_epoch": 10972,
        "meta_bstar": 0.00022839078,
        "meta_mean_motion_dot": 5.56e-05,
        "meta_mean_motion_ddot": 0,
        "tle_line1": "1 58647U 23205C   25351.00822727  .00005560  00000+0  22839-3 0  9998",
        "tle_line2": "2 58647  97.3619  10.5637 0006114 247.6979 112.3611 15.24580087109729"
      },
      "geometry": {
        "type": "Point",
        "coordinates": [
          9.60285779072856,
          8.868397382067478
        ]
      }
    },
    {
      "type": "Feature",
      "properties": {
        "norad_id": 58648,
        "name": "TIANMU-1 14",
        "group": "weather",
        "lat": 77.79491179830727,
        "lon": -133.22885394874493,
        "alt_km": 489.0527252953698,
        "timestamp": "2025-12-17T04:57:44.048051+00:00",
        "meta_object_name": "TIANMU-1 14",
        "meta_object_id": "2023-205D",
        "meta_epoch": "2025-12-16T23:48:00.533376",
        "meta_mean_motion": 15.24563272,
        "meta_eccentricity": 0.00068996,
        "meta_inclination": 97.355,
        "meta_ra_of_asc_node": 9.8922,
        "meta_arg_of_pericenter": 253.7845,
        "meta_mean_anomaly": 106.2634,
        "meta_ephemeris_type": 0,
        "meta_classification_type": "U",
        "meta_norad_cat_id": 58648,
        "meta_element_set_no": 999,
        "meta_rev_at_epoch": 10972,
        "meta_bstar": 0.00021645101,
        "meta_mean_motion_dot": 5.263e-05,
        "meta_mean_motion_ddot": 0,
        "tle_line1": "1 58648U 23205D   25350.99167284  .00005263  00000+0  21645-3 0  9990",
        "tle_line2": "2 58648  97.3550   9.8922 0006899 253.7845 106.2634 15.24563272109726"
      },
      "geometry": {
        "type": "Point",
        "coordinates": [
          -133.22885394874493,
          77.79491179830727
        ]
      }
    },
    {
      "type": "Feature",
      "properties": {
        "norad_id": 58660,
        "name": "TIANMU-1 19",
        "group": "weather",
        "lat": 47.98055327817774,
        "lon": 93.89690404471725,
        "alt_km": 480.6922289122167,
        "timestamp": "2025-12-17T04:57:44.048062+00:00",
        "meta_object_name": "TIANMU-1 19",
        "meta_object_id": "2023-208A",
        "meta_epoch": "2025-12-16T22:27:48.172608",
        "meta_mean_motion": 15.27927346,
        "meta_eccentricity": 0.00042713,
        "meta_inclination": 97.4389,
        "meta_ra_of_asc_node": 101.9647,
        "meta_arg_of_pericenter": 234.0211,
        "meta_mean_anomaly": 126.0633,
        "meta_ephemeris_type": 0,
        "meta_classification_type": "U",
        "meta_norad_cat_id": 58660,
        "meta_element_set_no": 999,
        "meta_rev_at_epoch": 10946,
        "meta_bstar": 0.00029047796,
        "meta_mean_motion_dot": 7.845e-05,
        "meta_mean_motion_ddot": 0,
        "tle_line1": "1 58660U 23208A   25350.93597422  .00007845  00000+0  29048-3 0  9995",
        "tle_line2": "2 58660  97.4389 101.9647 0004271 234.0211 126.0633 15.27927346109469"
      },
      "geometry": {
        "type": "Point",
        "coordinates": [
          93.89690404471725,
          47.98055327817774
        ]
      }
    },
    {
      "type": "Feature",
      "properties": {
        "norad_id": 58661,
        "name": "TIANMU-1 20",
        "group": "weather",
        "lat": 37.657464955571044,
        "lon": -71.53095631414834,
        "alt_km": 476.9224768558024,
        "timestamp": "2025-12-17T04:57:44.048073+00:00",
        "meta_object_name": "TIANMU-1 20",
        "meta_object_id": "2023-208B",
        "meta_epoch": "2025-12-16T22:03:39.820032",
        "meta_mean_motion": 15.29117996,
        "meta_eccentricity": 0.00064054,
        "meta_inclination": 97.4327,
        "meta_ra_of_asc_node": 102.3997,
        "meta_arg_of_pericenter": 248.1508,
        "meta_mean_anomaly": 111.9051,
        "meta_ephemeris_type": 0,
        "meta_classification_type": "U",
        "meta_norad_cat_id": 58661,
        "meta_element_set_no": 999,
        "meta_rev_at_epoch": 10953,
        "meta_bstar": 0.0002820788,
        "meta_mean_motion_dot": 7.902e-05,
        "meta_mean_motion_ddot": 0,
        "tle_line1": "1 58661U 23208B   25350.91921088  .00007902  00000+0  28208-3 0  9994",
        "tle_line2": "2 58661  97.4327 102.3997 0006405 248.1508 111.9051 15.29117996109530"
      },
      "geometry": {
        "type": "Point",
        "coordinates": [
          -71.53095631414834,
          37.657464955571044
        ]
      }
    },
    {
      "type": "Feature",
      "properties": {
        "norad_id": 58662,
        "name": "TIANMU-1 21",
        "group": "weather",
        "lat": -7.101079223498962,
        "lon": -76.31702848866033,
        "alt_km": 472.467727340646,
        "timestamp": "2025-12-17T04:57:44.048082+00:00",
        "meta_object_name": "TIANMU-1 21",
        "meta_object_id": "2023-208C",
        "meta_epoch": "2025-12-16T23:26:37.604832",
        "meta_mean_motion": 15.31643062,
        "meta_eccentricity": 0.00060276,
        "meta_inclination": 97.4374,
        "meta_ra_of_asc_node": 104.3847,
        "meta_arg_of_pericenter": 242.1654,
        "meta_mean_anomaly": 117.8977,
        "meta_ephemeris_type": 0,
        "meta_classification_type": "U",
        "meta_norad_cat_id": 58662,
        "meta_element_set_no": 999,
        "meta_rev_at_epoch": 10964,
        "meta_bstar": 0.00030275932,
        "meta_mean_motion_dot": 9.178e-05,
        "meta_mean_motion_ddot": 0,
        "tle_line1": "1 58662U 23208C   25350.97682413  .00009178  00000+0  30276-3 0  9992",
        "tle_line2": "2 58662  97.4374 104.3847 0006027 242.1654 117.8977 15.31643062109640"
      },
      "geometry": {
        "type": "Point",
        "coordinates": [
          -76.31702848866033,
          -7.101079223498962
        ]
      }
    },
    {
      "type": "Feature",
      "properties": {
        "norad_id": 58663,
        "name": "TIANMU-1 22",
        "group": "weather",
        "lat": 45.25273325429559,
        "lon": 94.71805403994301,
        "alt_km": 480.3665498948021,
        "timestamp": "2025-12-17T04:57:44.048092+00:00",
        "meta_object_name": "TIANMU-1 22",
        "meta_object_id": "2023-208D",
        "meta_epoch": "2025-12-16T22:28:28.303680",
        "meta_mean_motion": 15.27676156,
        "meta_eccentricity": 0.00026707,
        "meta_inclination": 97.4383,
        "meta_ra_of_asc_node": 102.0224,
        "meta_arg_of_pericenter": 264.6457,
        "meta_mean_anomaly": 95.4478,
        "meta_ephemeris_type": 0,
        "meta_classification_type": "U",
        "meta_norad_cat_id": 58663,
        "meta_element_set_no": 999,
        "meta_rev_at_epoch": 10947,
        "meta_bstar": 0.00026881025,
        "meta_mean_motion_dot": 7.197e-05,
        "meta_mean_motion_ddot": 0,
        "tle_line1": "1 58663U 23208D   25350.93643870  .00007197  00000+0  26881-3 0  9999",
        "tle_line2": "2 58663  97.4383 102.0224 0002670 264.6457  95.4478 15.27676156109478"
      },
      "geometry": {
        "type": "Point",
        "coordinates": [
          94.71805403994301,
          45.25273325429559
        ]
      }
    },
    {
      "type": "Feature",
      "properties": {
        "norad_id": 58700,
        "name": "TIANMU-1 15",
        "group": "weather",
        "lat": 54.76812954951623,
        "lon": 3.3551118311480117,
        "alt_km": 490.3660377638753,
        "timestamp": "2025-12-17T04:57:44.048101+00:00",
        "meta_object_name": "TIANMU-1 15",
        "meta_object_id": "2024-004A",
        "meta_epoch": "2025-12-15T13:02:10.173984",
        "meta_mean_motion": 15.24523626,
        "meta_eccentricity": 0.00056536,
        "meta_inclination": 97.4626,
        "meta_ra_of_asc_node": 171.0022,
        "meta_arg_of_pericenter": 279.9728,
        "meta_mean_anomaly": 80.0871,
        "meta_ephemeris_type": 0,
        "meta_classification_type": "U",
        "meta_norad_cat_id": 58700,
        "meta_element_set_no": 999,
        "meta_rev_at_epoch": 10777,
        "meta_bstar": 0.00021318175,
        "meta_mean_motion_dot": 5.174e-05,
        "meta_mean_motion_ddot": 0,
        "tle_line1": "1 58700U 24004A   25349.54317331  .00005174  00000+0  21318-3 0  9994",
        "tle_line2": "2 58700  97.4626 171.0022 0005653 279.9728  80.0871 15.24523626107774"
      },
      "geometry": {
        "type": "Point",
        "coordinates": [
          3.3551118311480117,
          54.76812954951623
        ]
      }
    }
  ]
}